KOMPSAT-7               
1 66820U 25279A   25358.28053538  .00003129  00000+0  25169-3 0  9994
2 66820  97.6458 303.9466 0011186 224.5500 135.4826 15.00667900  3386
STARLINK-35966          
1 66821U 25280A   25358.85134528  .00061592  00000+0  99471-3 0  9994
2 66821  70.0006 165.2423 0003203 272.6205  87.4616 15.52559258  4815
STARLINK-35958          
1 66822U 25280B   25358.85100321  .00070855  00000+0  11406-2 0  9992
2 66822  70.0005 165.2417 0003730 272.1422  87.9338 15.52605658  4811
STARLINK-35957          
1 66823U 25280C   25358.85066683  .00145551  00000+0  23178-2 0  9990
2 66823  70.0004 165.2405 0003279 272.9224  87.1588 15.52611622  4811
STARLINK-35896          
1 66824U 25280D   25358.85032951  .00082133  00000+0  13222-2 0  9997
2 66824  70.0004 165.2388 0003295 269.8029  90.2780 15.52557184  4819
STARLINK-35476          
1 66825U 25280E   25358.84998626  .00069781  00000+0  11258-2 0  9998
2 66825  70.0004 165.2374 0003594 273.6538  86.4238 15.52549304  4815
STARLINK-35898          
1 66826U 25280F   25358.84964565  .00094434  00000+0  15178-2 0  9992
2 66826  70.0004 165.2357 0003148 272.3336  87.7491 15.52551984  4816
STARLINK-35959          
1 66827U 25280G   25358.84930105  .00101948  00000+0  16361-2 0  9990
2 66827  70.0005 165.2343 0003212 273.0883  86.9936 15.52563381  4819
STARLINK-35982          
1 66828U 25280H   25358.84861387  .00075172  00000+0  12113-2 0  9996
2 66828  70.0005 165.2316 0003277 272.9901  87.0911 15.52559322  4815
STARLINK-36084          
1 66829U 25280J   25358.84895941  .00088340  00000+0  14213-2 0  9994
2 66829  70.0005 165.2323 0003191 272.3569  87.7253 15.52548611  4818
STARLINK-35881          
1 66830U 25280K   25358.84827419  .00086631  00000+0  13943-2 0  9991
2 66830  70.0006 165.2297 0003258 269.9431  90.1383 15.52545776  4816
STARLINK-35788          
1 66831U 25280L   25358.84793024  .00090403  00000+0  14538-2 0  9999
2 66831  70.0004 165.2295 0003325 274.0814  85.9993 15.52551582  4811
